ARIANE 40+ R/B          
1 23561U 95021B   26157.64240740  .00000275  00000+0  10138-3 0  9991
2 23561  98.4412 227.8693 0005806 227.9484 255.2585 14.39827571632043
SL-16 R/B               
1 23705U 95058B   26157.81510434 -.00000153  00000+0 -54011-4 0  9996
2 23705  71.0216 353.1362 0013343 334.4552  25.5910 14.15505363580467
SL-16 R/B               
1 24298U 96051B   26157.76250312  .00000132  00000+0  97896-4 0  9991
2 24298  70.7634 346.7124 0014570 352.8339   7.2570 14.12442526534229
ORBVIEW 2 (SEASTAR)     
1 24883U 97037A   26158.19236785  .00000298  00000+0  11983-3 0  9997
2 24883  98.8681 324.9351 0002878 137.3069 222.8340 14.35548493521317
SL-16 R/B               
1 25400U 98043G   26158.11920047  .00000055  00000+0  42047-4 0  9991
2 25400  98.8359 112.1921 0010834 112.6352 247.5974 14.26066906451736
SL-16 R/B               
1 25407U 98045B   26158.27673602  .00000087  00000+0  67900-4 0  9999
2 25407  71.0120 353.1723 0009532 253.4534 106.5543 14.16204543439785
ISS (ZARYA)             
1 25544U 98067A   26157.86947977  .00009276  00000+0  17237-3 0  9994
2 25544  51.6338 351.1688 0006977 142.0049 218.1433 15.49642340570157
CZ-4B R/B               
1 25732U 99025C   26157.86008348  .00000041  00000+0  40214-4 0  9991
2 25732  98.6488 199.9581 0038257  88.5039  84.6770 14.18281720400802
OKEAN-O                 
1 25860U 99039A   26157.66869947  .00000678  00000+0  95548-4 0  9992
2 25860  97.9319 216.5869 0001858  79.3700 280.7721 14.80454739447553
SL-16 R/B               
1 25861U 99039B   26157.63275003  .00000515  00000+0  71888-4 0  9995
2 25861  97.9842 216.5254 0014087 333.8280  26.2219 14.81834725450032
DELTA 2 R/B             
1 25876U 99041E   26158.12466285  .00000758  00000+0  15964-3 0  9994
2 25876  51.7662 303.9918 0500964 252.2696 102.2970 14.11997656375663
HELIOS 1B               
1 25977U 99064A   26157.68832614  .00001622  00000+0  18318-3 0  9991
2 25977  98.1623  62.5242 0002301 106.4885 253.6584 14.87978797698496
TERRA                   
1 25994U 99068A   26158.01926653  .00000404  00000+0  91295-4 0  9992
2 25994  97.9460 207.9683 0000883 241.3027 180.8680 14.61095053408129
SL-16 R/B               
1 26070U 00006B   26158.03278694 -.00000173  00000+0 -63810-4 0  9996
2 26070  71.0034 269.9758 0015027  39.0990 321.1216 14.15836990361207
TITAN 4B R/B            
1 26474U 00047B   26158.25801676  .00003530  00000+0  21906-3 0  9992
2 26474  67.9877 148.5205 0045537 297.1014  62.5494 15.10139591406434
ENVISAT                 
1 27386U 02009A   26158.15766565  .00000098  00000+0  45572-4 0  9993
2 27386  98.3830 109.7001 0001339  91.0025 280.1375 14.39062435272048
IDEFIX & ARIANE 42P R/B 
1 27422U 02021B   26158.06148695  .00000229  00000+0  10370-3 0  9999
2 27422  98.5942  95.6544 0010645 287.0528  72.9488 14.31077356256803
AQUA                    
1 27424U 02022A   26158.19023471  .00000855  00000+0  17988-3 0  9997
2 27424  98.4272 127.2738 0001499  54.9130 315.7137 14.62142940281818
CZ-4B R/B               
1 27432U 02024C   26157.64092704  .00000050  00000+0  48237-4 0  9991
2 27432  98.8703 210.5289 0051007 129.5946 344.9197 14.14562687241818
MIDORI II (ADEOS-II)    
1 27597U 02056A   26158.12782018  .00000282  00000+0  12835-3 0  9997
2 27597  98.7874 117.3024 0002210  90.7184 269.4250 14.29344099223074
H-2A R/B                
1 27601U 02056E   26158.16231472  .00000209  00000+0  88217-4 0  9997
2 27601  98.3308 115.2024 0068866 254.8968 114.8527 14.33817754226933
CZ-4B R/B               
1 28059U 03049C   26158.26048746  .00000375  00000+0  97493-4 0  9999
2 28059  98.6896 156.7119 0047325 319.5348  40.2331 14.55093659199623
CZ-2C R/B               
1 28222U 04012C   26157.37962722  .00122901  00000+0  75160-3 0  9998
2 28222  97.7089 231.8036 0008825 332.1519  27.9272 15.76941093218193
SL-16 R/B               
1 28353U 04021B   26157.41307141 -.00000166  00000+0 -61348-4 0  9990
2 28353  71.0024  46.3008 0007476 267.0875  92.9392 14.14612822135382
CZ-4B R/B               
1 28415U 04035C   26157.67214399  .00009079  00000+0  30615-3 0  9996
2 28415  97.3371 190.8652 0031236  15.7592 344.4614 15.30469234193519
CZ-2C R/B               
1 28480U 04046B   26158.02456888  .00000087  00000+0  47945-4 0  9996
2 28480  98.1951  67.4398 0138112 250.5396 108.0820 14.27024353121240
ARIANE 5 R/B            
1 28499U 04049H   26158.22827399  .00000900  00000+0  10491-3 0  9999
2 28499  98.2717 330.0973 0085046  61.3723 299.6012 14.85435502159087
CZ-2D R/B               
1 28738U 05024B   26158.01501285  .00059290  00000+0  52442-3 0  9997
2 28738  97.3493 176.9434 0004992  75.4814 284.7001 15.68453808153742
ALOS (DAICHI)           
1 28931U 06002A   26158.15286279  .00001121  00000+0  19514-3 0  9990
2 28931  98.1319 113.7519 0001832  62.5114 297.6278 14.70029970 86628
H-2A R/B                
1 28932U 06002B   26158.16695304  .00007330  00000+0  35369-3 0  9999
2 28932  98.2561 313.0915 0049715 297.2323  62.3847 15.17938457108002
