OBJECT_NAME,OBJECT_ID,EPOCH,MEAN_MOTION,ECCENTRICITY,INCLINATION,RA_OF_ASC_NODE,ARG_OF_PERICENTER,MEAN_ANOMALY,EPHEMERIS_TYPE,CLASSIFICATION_TYPE,NORAD_CAT_ID,ELEMENT_SET_NO,REV_AT_EPOCH,BSTAR,MEAN_MOTION_DOT,MEAN_MOTION_DDOT
ARIANE 40+ R/B,1995-021B,2026-06-06T15:25:03.999360,14.39827571,.00058062,98.4412,227.8693,227.9484,255.2585,0,U,23561,999,63204,.10138467E-3,.275E-5,0
SL-16 R/B,1995-058B,2026-06-06T19:33:45.014976,14.15505363,.00133436,71.0216,353.1362,334.4552,25.5910,0,U,23705,999,58046,-.54011175E-4,-.153E-5,0
SL-16 R/B,1996-051B,2026-06-06T18:18:00.269568,14.12442526,.00145707,70.7634,346.7124,352.8339,7.2570,0,U,24298,999,53422,.97895818E-4,.132E-5,0
ORBVIEW 2 (SEASTAR),1997-037A,2026-06-07T04:37:00.582240,14.35548493,.00028786,98.8681,324.9351,137.3069,222.8340,0,U,24883,999,52131,.11982716E-3,.298E-5,0
SL-16 R/B,1998-043G,2026-06-07T02:51:38.920608,14.26066906,.0010834,98.8359,112.1921,112.6352,247.5974,0,U,25400,999,45173,.42046503E-4,.55E-6,0
SL-16 R/B,1998-045B,2026-06-07T06:38:29.992128,14.16204543,.00095326,71.0120,353.1723,253.4534,106.5543,0,U,25407,999,43978,.67900275E-4,.87E-6,0
ISS (ZARYA),1998-067A,2026-06-06T20:52:03.052128,15.49642340,.00069776,51.6338,351.1688,142.0049,218.1433,0,U,25544,999,57015,.17236766E-3,.9276E-4,0
CZ-4B R/B,1999-025C,2026-06-06T20:38:31.212672,14.18281720,.00382575,98.6488,199.9581,88.5039,84.6770,0,U,25732,999,40080,.40213776E-4,.41E-6,0
OKEAN-O,1999-039A,2026-06-06T16:02:55.634208,14.80454739,.00018587,97.9319,216.5869,79.3700,280.7721,0,U,25860,999,44755,.95547592E-4,.678E-5,0
SL-16 R/B,1999-039B,2026-06-06T15:11:09.602592,14.81834725,.00140879,97.9842,216.5254,333.8280,26.2219,0,U,25861,999,45003,.71887793E-4,.515E-5,0
DELTA 2 R/B,1999-041E,2026-06-07T02:59:30.870240,14.11997656,.05009645,51.7662,303.9918,252.2696,102.2970,0,U,25876,999,37566,.15963738E-3,.758E-5,0
HELIOS 1B,1999-064A,2026-06-06T16:31:11.378496,14.87978797,.00023014,98.1623,62.5242,106.4885,253.6584,0,U,25977,999,69849,.18317543E-3,.1622E-4,0
TERRA,1999-068A,2026-06-07T00:27:44.628192,14.61095053,.00008839,97.9460,207.9683,241.3027,180.8680,0,U,25994,999,40812,.91295458E-4,.404E-5,0
SL-16 R/B,2000-006B,2026-06-07T00:47:12.791616,14.15836990,.00150271,71.0034,269.9758,39.0990,321.1216,0,U,26070,999,36120,-.63809642E-4,-.173E-5,0
TITAN 4B R/B,2000-047B,2026-06-07T06:11:32.648064,15.10139591,.00455379,67.9877,148.5205,297.1014,62.5494,0,U,26474,999,40643,.21906119E-3,.353E-4,0
ENVISAT,2002-009A,2026-06-07T03:47:02.312160,14.39062435,.00013393,98.3830,109.7001,91.0025,280.1375,0,U,27386,999,27204,.45571819E-4,.98E-6,0
IDEFIX & ARIANE 42P R/B,2002-021B,2026-06-07T01:28:32.472480,14.31077356,.00106453,98.5942,95.6544,287.0528,72.9488,0,U,27422,999,25680,.10370049E-3,.229E-5,0
AQUA,2002-022A,2026-06-07T04:33:56.278944,14.62142940,.00014991,98.4272,127.2738,54.9130,315.7137,0,U,27424,999,28181,.17987541E-3,.855E-5,0
CZ-4B R/B,2002-024C,2026-06-06T15:22:56.096256,14.14562687,.00510073,98.8703,210.5289,129.5946,344.9197,0,U,27432,999,24181,.48237076E-4,.5E-6,0
MIDORI II (ADEOS-II),2002-056A,2026-06-07T03:04:03.663552,14.29344099,.00022106,98.7874,117.3024,90.7184,269.4250,0,U,27597,999,22307,.12835403E-3,.282E-5,0
H-2A R/B,2002-056E,2026-06-07T03:53:43.991808,14.33817754,.00688666,98.3308,115.2024,254.8968,114.8527,0,U,27601,999,22693,.88216723E-4,.209E-5,0
CZ-4B R/B,2003-049C,2026-06-07T06:15:06.116544,14.55093659,.00473251,98.6896,156.7119,319.5348,40.2331,0,U,28059,999,19962,.97492982E-4,.375E-5,0
CZ-2C R/B,2004-012C,2026-06-06T09:06:39.791808,15.76941093,.00088254,97.7089,231.8036,332.1519,27.9272,0,U,28222,999,21819,.75160432E-3,.122901E-2,0
SL-16 R/B,2004-021B,2026-06-06T09:54:49.369824,14.14612822,.00074769,71.0024,46.3008,267.0875,92.9392,0,U,28353,999,13538,-.61348062E-4,-.166E-5,0
CZ-4B R/B,2004-035C,2026-06-06T16:07:53.240736,15.30469234,.00312368,97.3371,190.8652,15.7592,344.4614,0,U,28415,999,19351,.30615196E-3,.9079E-4,0
CZ-2C R/B,2004-046B,2026-06-07T00:35:22.751232,14.27024353,.01381126,98.1951,67.4398,250.5396,108.0820,0,U,28480,999,12124,.47945149E-4,.87E-6,0
ARIANE 5 R/B,2004-049H,2026-06-07T05:28:42.872736,14.85435502,.00850464,98.2717,330.0973,61.3723,299.6012,0,U,28499,999,15908,.1049112E-3,.9E-5,0
CZ-2D R/B,2005-024B,2026-06-07T00:21:37.110240,15.68453808,.0004992,97.3493,176.9434,75.4814,284.7001,0,U,28738,999,15374,.52442084E-3,.5929E-3,0
ALOS (DAICHI),2006-002A,2026-06-07T03:40:07.345056,14.70029970,.00018328,98.1319,113.7519,62.5114,297.6278,0,U,28931,999,8662,.19514482E-3,.1121E-4,0
H-2A R/B,2006-002B,2026-06-07T04:00:24.742656,15.17938457,.00497152,98.2561,313.0915,297.2323,62.3847,0,U,28932,999,10800,.35368869E-3,.733E-4,0
